OBJECT_NAME,OBJECT_ID,EPOCH,MEAN_MOTION,ECCENTRICITY,INCLINATION,RA_OF_ASC_NODE,ARG_OF_PERICENTER,MEAN_ANOMALY,EPHEMERIS_TYPE,CLASSIFICATION_TYPE,NORAD_CAT_ID,ELEMENT_SET_NO,REV_AT_EPOCH,BSTAR,MEAN_MOTION_DOT,MEAN_MOTION_DDOT
FLOCK 4BE-6,2024-149BA,2026-07-22T04:56:04.925184,15.40460710,.00048522,97.3775,287.1301,152.7998,207.3504,0,U,60516,999,10766,.40192489E-3,.16216E-3,0
FLOCK 4BE-14,2024-149BB,2026-07-22T05:17:22.490880,15.42022838,.00058517,97.3680,287.3157,155.5318,204.6208,0,U,60517,999,10772,.45600278E-3,.194E-3,0
FLOCK 4BE-1,2024-149BC,2026-07-22T04:46:51.934944,15.43687314,.0005523,97.3766,288.6990,155.2226,204.9288,0,U,60518,999,10777,.44960789E-3,.20225E-3,0
FLOCK 4BE-28,2024-149BD,2026-07-22T11:31:10.013664,15.46753398,.00056206,97.3732,289.8283,155.1494,205.0028,0,U,60519,999,10789,.98882687E-3,.49677E-3,0
IPERDRONE.0,2024-149BE,2026-07-22T12:03:36.546912,15.72127811,.00036629,97.3756,298.6014,151.1944,208.9522,0,U,60520,999,10845,.79282918E-3,.104973E-2,0
CONNECTA IOT-2,2024-149BG,2026-07-22T04:10:04.846080,15.24233740,.00062748,97.3825,280.7928,186.1986,173.9175,0,U,60522,999,10722,.16166604E-3,.3873E-4,0
CONNECTA IOT-4,2024-149BJ,2026-07-22T05:33:45.943200,15.43336200,.00065473,97.3783,288.0460,152.8392,207.3200,0,U,60524,999,10773,.4100752E-3,.18222E-3,0
ORESAT0.5,2024-149BK,2026-07-22T04:56:04.543296,15.46308638,.00066152,97.3712,289.7723,143.4014,216.7689,0,U,60525,999,10788,.45740765E-3,.2251E-3,0
DEIMOS,2024-149BL,2026-07-22T20:10:44.084928,15.45408649,.00065821,97.3771,290.5388,146.3457,213.8211,0,U,60526,999,10795,.48307595E-3,.23058E-3,0
CUAVA-2,2024-149BM,2026-07-22T16:57:16.659648,15.36865059,.00076349,97.3713,285.3028,155.3607,204.8004,0,U,60527,999,10762,.38698761E-3,.13886E-3,0
ERNST,2024-149BN,2026-07-22T04:48:59.212512,15.40022582,.00068227,97.3796,287.2025,156.3931,203.7630,0,U,60528,999,10766,.364974E-3,.14509E-3,0
TORO,2024-149BQ,2026-07-22T03:26:16.553760,14.96531660,.00013962,97.6768,277.1581,110.2753,249.8619,0,U,60530,999,10518,.14500539E-3,.1591E-4,0
HYPSO-2,2024-149BR,2026-07-22T10:46:35.145696,14.98953019,.00012865,97.6824,279.1987,96.3286,263.8084,0,U,60531,999,10533,.10514425E-3,.1214E-4,0
LEMU NGE,2024-149BS,2026-07-22T17:24:07.724160,14.95078427,.00005891,97.6828,277.9667,132.1340,227.9930,0,U,60532,999,10526,.10977471E-3,.1146E-4,0
LEMUR-2-STELLA,2024-149BT,2026-07-22T16:22:27.124032,15.12482958,.00015015,97.6726,286.3083,121.6728,238.4648,0,U,60533,999,10586,.67449338E-3,.11681E-3,0
SATELIOT_2,2024-149BU,2026-07-22T11:11:14.276544,14.96471589,.00011677,97.6810,277.7786,82.0890,278.0464,0,U,60534,999,10524,.11347373E-3,.1231E-4,0
NIGHTJAR,2024-149BV,2026-07-22T15:14:43.351008,14.99209974,.00027889,97.6852,279.8468,81.1735,278.9803,0,U,60535,999,14818,.25314404E-3,.3025E-4,0
LEMUR-2-MARHISYAM,2024-149BW,2026-07-22T05:06:28.564704,15.11867364,.00021285,97.6869,286.3201,58.8291,301.3148,0,U,60536,999,10577,.59472169E-3,.10114E-3,0
SATELIOT_4,2024-149BX,2026-07-22T11:16:33.958272,14.96773197,.00006161,97.6718,277.2853,266.1336,93.9815,0,U,60537,999,10525,.13553686E-3,.1493E-4,0
PICO-02A021,2024-149BY,2026-07-22T10:36:03.162528,15.03534783,.00040189,97.6720,281.9729,249.8610,110.2183,0,U,60538,999,10503,.38206568E-3,.5154E-4,0
ICEYE-X43,2024-149BZ,2026-07-22T22:10:46.644672,14.99781230,.00064881,97.6773,280.4070,314.4411,45.6281,0,U,60539,999,10547,.78616022E-4,.913E-5,0
HAWK-10A,2024-149CA,2026-07-22T16:09:02.130048,14.96602123,.00023546,97.6875,278.9741,332.0497,28.0598,0,U,60540,999,10529,.97279914E-4,.1051E-4,0
UMBRA-09,2024-149CB,2026-07-22T17:10:57.341280,15.19013919,.00021651,97.6964,291.5546,186.3320,173.7887,0,U,60541,999,10611,.78260845E-3,.16336E-3,0
QPS-SAR-8 (AMATERU-IV),2024-149CC,2026-07-22T04:22:05.368512,15.04433924,.00028579,97.6638,282.0428,17.5872,342.5453,0,U,60542,999,10553,.34257082E-3,.4727E-4,0
ARCTIC WEATHER SATELLITE,2024-149CD,2026-07-22T16:24:29.556288,14.89796632,.00021383,97.6796,273.1321,27.9463,332.1869,0,U,60543,999,10458,.37223432E-4,.304E-5,0
CAPELLA-15 (ACADIA-5),2024-149CE,2026-07-22T04:29:48.543360,14.92392787,.00027931,97.6752,275.2124,309.4682,50.6290,0,U,60544,999,10507,.29174654E-3,.2932E-4,0
HAWK-10B,2024-149CF,2026-07-22T16:08:50.628480,14.96601552,.00045706,97.6795,278.2930,348.2442,11.8672,0,U,60545,999,10529,.10169903E-3,.1101E-4,0
ICEYE-X39,2024-149CG,2026-07-22T11:58:25.833504,15.00112458,.0006648,97.6804,280.0501,25.6510,334.5042,0,U,60546,999,10541,.25104435E-3,.3073E-4,0
UMBRA-10,2024-149CH,2026-07-22T17:10:18.552864,15.19014618,.00020869,97.6969,291.5849,154.0872,206.0467,0,U,60547,999,10612,.86264088E-3,.18019E-3,0
ICEYE-X33,2024-149CJ,2026-07-22T04:04:46.472448,15.00927945,.00018452,97.7381,282.1399,65.2412,294.9003,0,U,60548,999,10545,.28335812E-3,.355E-4,0
