FLOCK 4BE-6             
1 60516U 24149BA  26203.20561256  .00016216  00000+0  40192-3 0  9992
2 60516  97.3775 287.1301 0004852 152.7998 207.3504 15.40460710107669
FLOCK 4BE-14            
1 60517U 24149BB  26203.22039920  .00019400  00000+0  45600-3 0  9990
2 60517  97.3680 287.3157 0005851 155.5318 204.6208 15.42022838107728
FLOCK 4BE-1             
1 60518U 24149BC  26203.19921221  .00020225  00000+0  44961-3 0  9997
2 60518  97.3766 288.6990 0005523 155.2226 204.9288 15.43687314107777
FLOCK 4BE-28            
1 60519U 24149BD  26203.47997701  .00049677  00000+0  98883-3 0  9999
2 60519  97.3732 289.8283 0005620 155.1494 205.0028 15.46753398107899
IPERDRONE.0             
1 60520U 24149BE  26203.50250633  .00104973  00000+0  79283-3 0  9995
2 60520  97.3756 298.6014 0003662 151.1944 208.9522 15.72127811108455
CONNECTA IOT-2          
1 60522U 24149BG  26203.17366720  .00003873  00000+0  16167-3 0  9994
2 60522  97.3825 280.7928 0006274 186.1986 173.9175 15.24233740107221
CONNECTA IOT-4          
1 60524U 24149BJ  26203.23178175  .00018222  00000+0  41008-3 0  9994
2 60524  97.3783 288.0460 0006547 152.8392 207.3200 15.43336200107735
ORESAT0.5               
1 60525U 24149BK  26203.20560814  .00022510  00000+0  45741-3 0  9990
2 60525  97.3712 289.7723 0006615 143.4014 216.7689 15.46308638107889
DEIMOS                  
1 60526U 24149BL  26203.84078802  .00023058  00000+0  48308-3 0  9992
2 60526  97.3771 290.5388 0006582 146.3457 213.8211 15.45408649107957
CUAVA-2                 
1 60527U 24149BM  26203.70644282  .00013886  00000+0  38699-3 0  9999
2 60527  97.3713 285.3028 0007634 155.3607 204.8004 15.36865059107629
ERNST                   
1 60528U 24149BN  26203.20068533  .00014509  00000+0  36497-3 0  9991
2 60528  97.3796 287.2025 0006822 156.3931 203.7630 15.40022582107666
TORO                    
1 60530U 24149BQ  26203.14324715  .00001591  00000+0  14501-3 0  9993
2 60530  97.6768 277.1581 0001396 110.2753 249.8619 14.96531660105183
HYPSO-2                 
1 60531U 24149BR  26203.44901789  .00001214  00000+0  10514-3 0  9991
2 60531  97.6824 279.1987 0001286  96.3286 263.8084 14.98953019105339
LEMU NGE                
1 60532U 24149BS  26203.72508940  .00001146  00000+0  10977-3 0  9992
2 60532  97.6828 277.9667 0000589 132.1340 227.9930 14.95078427105261
LEMUR-2-STELLA          
1 60533U 24149BT  26203.68225838  .00011681  00000+0  67449-3 0  9991
2 60533  97.6726 286.3083 0001501 121.6728 238.4648 15.12482958105860
SATELIOT_2              
1 60534U 24149BU  26203.46613746  .00001231  00000+0  11347-3 0  9993
2 60534  97.6810 277.7786 0001167  82.0890 278.0464 14.96471589105244
NIGHTJAR                
1 60535U 24149BV  26203.63522397  .00003025  00000+0  25314-3 0  9996
2 60535  97.6852 279.8468 0002788  81.1735 278.9803 14.99209974148185
LEMUR-2-MARHISYAM       
1 60536U 24149BW  26203.21283061  .00010114  00000+0  59472-3 0  9992
2 60536  97.6869 286.3201 0002128  58.8291 301.3148 15.11867364105777
SATELIOT_4              
1 60537U 24149BX  26203.46983748  .00001493  00000+0  13554-3 0  9990
2 60537  97.6718 277.2853 0000616 266.1336  93.9815 14.96773197105257
PICO-02A021             
1 60538U 24149BY  26203.44170327  .00005154  00000+0  38207-3 0  9990
2 60538  97.6720 281.9729 0004018 249.8610 110.2183 15.03534783105030
ICEYE-X43               
1 60539U 24149BZ  26203.92415098  .00000913  00000+0  78616-4 0  9998
2 60539  97.6773 280.4070 0006488 314.4411  45.6281 14.99781230105476
HAWK-10A                
1 60540U 24149CA  26203.67294132  .00001051  00000+0  97280-4 0  9998
2 60540  97.6875 278.9741 0002354 332.0497  28.0598 14.96602123105292
UMBRA-09                
1 60541U 24149CB  26203.71594145  .00016336  00000+0  78261-3 0  9990
2 60541  97.6964 291.5546 0002165 186.3320 173.7887 15.19013919106117
QPS-SAR-8 (AMATERU-IV)  
1 60542U 24149CC  26203.18200658  .00004727  00000+0  34257-3 0  9993
2 60542  97.6638 282.0428 0002857  17.5872 342.5453 15.04433924105531
ARCTIC WEATHER SATELLITE
1 60543U 24149CD  26203.68367542  .00000304  00000+0  37223-4 0  9999
2 60543  97.6796 273.1321 0002138  27.9463 332.1869 14.89796632104583
CAPELLA-15 (ACADIA-5)   
1 60544U 24149CE  26203.18736740  .00002932  00000+0  29175-3 0  9990
2 60544  97.6752 275.2124 0002793 309.4682  50.6290 14.92392787105070
HAWK-10B                
1 60545U 24149CF  26203.67280820  .00001101  00000+0  10170-3 0  9990
2 60545  97.6795 278.2930 0004570 348.2442  11.8672 14.96601552105290
ICEYE-X39               
1 60546U 24149CG  26203.49891011  .00003073  00000+0  25104-3 0  9994
2 60546  97.6804 280.0501 0006648  25.6510 334.5042 15.00112458105415
UMBRA-10                
1 60547U 24149CH  26203.71549251  .00018019  00000+0  86264-3 0  9996
2 60547  97.6969 291.5849 0002086 154.0872 206.0467 15.19014618106122
ICEYE-X33               
1 60548U 24149CJ  26203.16998232  .00003550  00000+0  28336-3 0  9993
2 60548  97.7381 282.1399 0001845  65.2412 294.9003 15.00927945105456
